ONEWEB-0012             
1 44057U 19010A   24151.59507913 -.00000308  00000+0 -83832-3 0  9992
2 44057  87.9120  17.6262 0002341 101.9800 258.1593 13.16592677253192
ONEWEB-0010             
1 44058U 19010B   24151.62041194 -.00000193  00000+0 -53818-3 0  9994
2 44058  87.9123  17.6005 0002380  82.4083 277.7318 13.16592816253243
ONEWEB-0008             
1 44059U 19010C   24151.56974627 -.00000276  00000+0 -75474-3 0  9998
2 44059  87.9123  17.6117 0001508  82.5148 277.6154 13.16593092253358
ONEWEB-0007             
1 44060U 19010D   24151.61943644  .00000149  00000+0  36049-3 0  9993
2 44060  87.9061  47.9705 0002104  91.4339 268.7032 13.15546208253086
ONEWEB-0006             
1 44061U 19010E   24151.24311559  .00000180  00000+0  44403-3 0  9995
2 44061  87.9051  48.0304 0002116  86.0594 274.0779 13.15547262253088
ONEWEB-0011             
1 44062U 19010F   24151.21300228 -.00000050  00000+0 -16576-3 0  9992
2 44062  87.9053  48.0366 0002109  77.6136 282.5230 13.15546287253070
ONEWEB-0013             
1 45131U 20008A   24151.54593786 -.00000500  00000+0 -14901-2 0  9997
2 45131  87.8636 203.1633 0002059 124.2632 235.8690 13.09375095208227
ONEWEB-0017             
1 45132U 20008B   24151.61253197  .00000532  00000+0  14871-2 0  9994
2 45132  87.8950 184.8933 0002294  88.6431 271.4959 13.10375389210041
